[{"OBJECT_NAME":"IRIDIUM 173","OBJECT_ID":"2019-002D","EPOCH":"2026-04-27T04:27:42.943680","MEAN_MOTION":14.3421771,"ECCENTRICITY":0.000219,"INCLINATION":86.4012,"RA_OF_ASC_NODE":14.8779,"ARG_OF_PERICENTER":88.0154,"MEAN_ANOMALY":272.1292,"EPHEMERIS_TYPE":0,"CLASSIFICATION_TYPE":"U","NORAD_CAT_ID":43925,"ELEMENT_SET_NO":999,"REV_AT_EPOCH":38164,"BSTAR":6.3838e-6,"MEAN_MOTION_DOT":3.8e-7,"MEAN_MOTION_DDOT":0},{"OBJECT_NAME":"IRIDIUM 169","OBJECT_ID":"2019-002E","EPOCH":"2026-04-27T04:45:33.889824","MEAN_MOTION":14.38608899,"ECCENTRICITY":0.0002832,"INCLINATION":86.4243,"RA_OF_ASC_NODE":46.5002,"ARG_OF_PERICENTER":92.4506,"MEAN_ANOMALY":267.7017,"EPHEMERIS_TYPE":0,"CLASSIFICATION_TYPE":"U","NORAD_CAT_ID":43926,"ELEMENT_SET_NO":999,"REV_AT_EPOCH":38289,"BSTAR":9.545e-5,"MEAN_MOTION_DOT":3.12e-6,"MEAN_MOTION_DDOT":0},{"OBJECT_NAME":"IRIDIUM 172","OBJECT_ID":"2019-002F","EPOCH":"2026-04-27T04:18:34.589664","MEAN_MOTION":14.34219881,"ECCENTRICITY":0.0001992,"INCLINATION":86.4008,"RA_OF_ASC_NODE":14.8883,"ARG_OF_PERICENTER":84.6266,"MEAN_ANOMALY":275.5157,"EPHEMERIS_TYPE":0,"CLASSIFICATION_TYPE":"U","NORAD_CAT_ID":43927,"ELEMENT_SET_NO":999,"REV_AT_EPOCH":38165,"BSTAR":7.3207e-5,"MEAN_MOTION_DOT":2.25e-6,"MEAN_MOTION_DDOT":0},{"OBJECT_NAME":"IRIDIUM 175","OBJECT_ID":"2019-002G","EPOCH":"2026-04-27T01:14:24.491904","MEAN_MOTION":14.43590379,"ECCENTRICITY":0.0004799,"INCLINATION":86.4488,"RA_OF_ASC_NODE":311.9117,"ARG_OF_PERICENTER":55.3328,"MEAN_ANOMALY":304.8325,"EPHEMERIS_TYPE":0,"CLASSIFICATION_TYPE":"U","NORAD_CAT_ID":43928,"ELEMENT_SET_NO":999,"REV_AT_EPOCH":39160,"BSTAR":2.411e-5,"MEAN_MOTION_DOT":1.02e-6,"MEAN_MOTION_DDOT":0},{"OBJECT_NAME":"IRIDIUM 171","OBJECT_ID":"2019-002H","EPOCH":"2026-04-27T02:10:42.998880","MEAN_MOTION":14.34217294,"ECCENTRICITY":0.0002192,"INCLINATION":86.4019,"RA_OF_ASC_NODE":15.2257,"ARG_OF_PERICENTER":82.7323,"MEAN_ANOMALY":277.4122,"EPHEMERIS_TYPE":0,"CLASSIFICATION_TYPE":"U","NORAD_CAT_ID":43929,"ELEMENT_SET_NO":999,"REV_AT_EPOCH":38163,"BSTAR":-1.2678e-5,"MEAN_MOTION_DOT":-1.6e-7,"MEAN_MOTION_DDOT":0},{"OBJECT_NAME":"IRIDIUM 170","OBJECT_ID":"2019-002J","EPOCH":"2026-04-27T04:32:43.321056","MEAN_MOTION":14.722556,"ECCENTRICITY":0.0002238,"INCLINATION":86.6135,"RA_OF_ASC_NODE":14.8633,"ARG_OF_PERICENTER":84.1789,"MEAN_ANOMALY":275.9683,"EPHEMERIS_TYPE":0,"CLASSIFICATION_TYPE":"U","NORAD_CAT_ID":43930,"ELEMENT_SET_NO":999,"REV_AT_EPOCH":39175,"BSTAR":0.00013174,"MEAN_MOTION_DOT":8.55e-6,"MEAN_MOTION_DDOT":0},{"OBJECT_NAME":"IRIDIUM 167","OBJECT_ID":"2019-002K","EPOCH":"2026-04-27T03:42:03.004416","MEAN_MOTION":14.3421749,"ECCENTRICITY":0.0002374,"INCLINATION":86.401,"RA_OF_ASC_NODE":14.9209,"ARG_OF_PERICENTER":81.8002,"MEAN_ANOMALY":278.3462,"EPHEMERIS_TYPE":0,"CLASSIFICATION_TYPE":"U","NORAD_CAT_ID":43931,"ELEMENT_SET_NO":999,"REV_AT_EPOCH":38164,"BSTAR":-9.6954e-6,"MEAN_MOTION_DOT":-7.0e-8,"MEAN_MOTION_DDOT":0},{"OBJECT_NAME":"IRIDIUM 181","OBJECT_ID":"2023-068S","EPOCH":"2026-04-26T22:35:33.771840","MEAN_MOTION":14.43310437,"ECCENTRICITY":0.0002136,"INCLINATION":86.4476,"RA_OF_ASC_NODE":78.2089,"ARG_OF_PERICENTER":80.4567,"MEAN_ANOMALY":279.6876,"EPHEMERIS_TYPE":0,"CLASSIFICATION_TYPE":"U","NORAD_CAT_ID":56726,"ELEMENT_SET_NO":999,"REV_AT_EPOCH":15504,"BSTAR":9.346e-5,"MEAN_MOTION_DOT":3.35e-6,"MEAN_MOTION_DDOT":0},{"OBJECT_NAME":"IRIDIUM 177","OBJECT_ID":"2023-068T","EPOCH":"2026-04-27T01:56:08.952288","MEAN_MOTION":14.80236559,"ECCENTRICITY":0.0002293,"INCLINATION":86.1993,"RA_OF_ASC_NODE":353.0665,"ARG_OF_PERICENTER":92.4842,"MEAN_ANOMALY":267.6642,"EPHEMERIS_TYPE":0,"CLASSIFICATION_TYPE":"U","NORAD_CAT_ID":56727,"ELEMENT_SET_NO":999,"REV_AT_EPOCH":15880,"BSTAR":0.00012849,"MEAN_MOTION_DOT":1.003e-5,"MEAN_MOTION_DDOT":0},{"OBJECT_NAME":"IRIDIUM 174","OBJECT_ID":"2023-068U","EPOCH":"2026-04-27T04:14:55.092192","MEAN_MOTION":14.72254016,"ECCENTRICITY":0.0002367,"INCLINATION":86.6143,"RA_OF_ASC_NODE":15.0105,"ARG_OF_PERICENTER":90.4874,"MEAN_ANOMALY":269.6615,"EPHEMERIS_TYPE":0,"CLASSIFICATION_TYPE":"U","NORAD_CAT_ID":56728,"ELEMENT_SET_NO":999,"REV_AT_EPOCH":15851,"BSTAR":7.2463e-5,"MEAN_MOTION_DOT":4.82e-6,"MEAN_MOTION_DDOT":0},{"OBJECT_NAME":"IRIDIUM 178","OBJECT_ID":"2023-068V","EPOCH":"2026-04-27T04:55:00.330816","MEAN_MOTION":14.80235827,"ECCENTRICITY":0.0002496,"INCLINATION":86.6561,"RA_OF_ASC_NODE":46.6562,"ARG_OF_PERICENTER":79.6531,"MEAN_ANOMALY":280.4972,"EPHEMERIS_TYPE":0,"CLASSIFICATION_TYPE":"U","NORAD_CAT_ID":56729,"ELEMENT_SET_NO":999,"REV_AT_EPOCH":15882,"BSTAR":0.00018869,"MEAN_MOTION_DOT":1.46e-5,"MEAN_MOTION_DDOT":0},{"OBJECT_NAME":"IRIDIUM 179","OBJECT_ID":"2023-068W","EPOCH":"2026-04-27T04:47:16.271232","MEAN_MOTION":14.80237751,"ECCENTRICITY":0.0002852,"INCLINATION":86.6787,"RA_OF_ASC_NODE":55.4874,"ARG_OF_PERICENTER":81.7633,"MEAN_ANOMALY":278.3912,"EPHEMERIS_TYPE":0,"CLASSIFICATION_TYPE":"U","NORAD_CAT_ID":56730,"ELEMENT_SET_NO":999,"REV_AT_EPOCH":15882,"BSTAR":0.00015469,"MEAN_MOTION_DOT":1.202e-5,"MEAN_MOTION_DDOT":0}]
