IRIDIUM 173             
1 43925U 19002D   26117.18591370  .00000038  00000+0  63838-5 0  9999
2 43925  86.4012  14.8779 0002190  88.0154 272.1292 14.34217710381647
IRIDIUM 169             
1 43926U 19002E   26117.19830891  .00000312  00000+0  95450-4 0  9994
2 43926  86.4243  46.5002 0002832  92.4506 267.7017 14.38608899382897
IRIDIUM 172             
1 43927U 19002F   26117.17956701  .00000225  00000+0  73207-4 0  9991
2 43927  86.4008  14.8883 0001992  84.6266 275.5157 14.34219881381654
IRIDIUM 175             
1 43928U 19002G   26117.05167236  .00000102  00000+0  24110-4 0  9999
2 43928  86.4488 311.9117 0004799  55.3328 304.8325 14.43590379391603
IRIDIUM 171             
1 43929U 19002H   26117.09077545 -.00000016  00000+0 -12678-4 0  9999
2 43929  86.4019  15.2257 0002192  82.7323 277.4122 14.34217294381631
IRIDIUM 170             
1 43930U 19002J   26117.18939029  .00000855  00000+0  13174-3 0  9995
2 43930  86.6135  14.8633 0002238  84.1789 275.9683 14.72255600391754
IRIDIUM 167             
1 43931U 19002K   26117.15420144 -.00000007  00000+0 -96954-5 0  9996
2 43931  86.4010  14.9209 0002374  81.8002 278.3462 14.34217490381640
IRIDIUM 181             
1 56726U 23068S   26116.94136310  .00000335  00000+0  93460-4 0  9994
2 56726  86.4476  78.2089 0002136  80.4567 279.6876 14.43310437155049
IRIDIUM 177             
1 56727U 23068T   26117.08065917  .00001003  00000+0  12849-3 0  9999
2 56727  86.1993 353.0665 0002293  92.4842 267.6642 14.80236559158806
IRIDIUM 174             
1 56728U 23068U   26117.17702653  .00000482  00000+0  72463-4 0  9994
2 56728  86.6143  15.0105 0002367  90.4874 269.6615 14.72254016158517
IRIDIUM 178             
1 56729U 23068V   26117.20486494  .00001460  00000+0  18869-3 0  9997
2 56729  86.6561  46.6562 0002496  79.6531 280.4972 14.80235827158820
IRIDIUM 179             
1 56730U 23068W   26117.19949388  .00001202  00000+0  15469-3 0  9990
2 56730  86.6787  55.4874 0002852  81.7633 278.3912 14.80237751158827
